YAOGAN 7                
1 36110U 09069A   14300.45940874  .00001295  00000-0  20059-3 0  4265
2 36110  98.0810  76.5262 0024012 319.3732  40.5700 14.74774244262802
TANDEM-X                
1 36605U 10030A   14300.44853661  .00004900  00000-0  23633-3 0  6326
2 36605  97.4462 305.9178 0001777  98.6991 261.4444 15.19154744241307
CARTOSAT 2B             
1 36795U 10035A   14300.45309782  .00001283  00000-0  18191-3 0  8081
2 36795  97.9276 357.4080 0013580 268.5518  91.4154 14.78678929231765
YAOGAN 10               
1 36834U 10038A   14300.49000848  .00001236  00000-0  16245-3 0  6874
2 36834  97.8793 294.6866 0001119  89.5572  71.9280 14.81972038227863
COSMO-SKYMED 4          
1 37216U 10060A   14300.44606414  .00000904  00000-0  12001-3 0  4202
2 37216  97.8776 122.8807 0001640  69.9434 290.1965 14.82163640214980
SAC-D                   
1 37673U 11024A   14300.03994223  .00001045  00000-0  17298-3 0   805
2 37673  98.0131 305.3729 0001481 116.1408 307.8374 14.72329729181631
HAIYANG 2A              
1 37781U 11043A   14300.42315127 -.00000071  00000-0 -26015-4 0  4272
2 37781  99.3519 309.4509 0002038  74.4440 285.6943 13.79300064161143
RASAT                   
1 37791U 11044D   14300.48853331  .00000750  00000-0  15159-3 0  5891
2 37791  98.1753  25.6483 0020915 270.7804 217.4496 14.64099124170725
MEGHA-TROPIQUES         
1 37838U 11058A   14300.09884933  .00000563  00000-0  16850-3 0  7788
2 37838  19.9764 203.5338 0009877 291.4231  68.5120 14.09670807156909
SRMSAT                  
1 37841U 11058D   14299.14415088  .00000495  00000-0  12809-3 0  7252
2 37841  19.9708 203.1757 0011812 282.2805 222.1654 14.10389905156873
YAOGAN 13               
1 37941U 11072A   14300.44641722  .00012909  00000-0  59838-3 0  3590
2 37941  97.3916 225.6016 0002987 117.3267  17.4039 15.20200411161453
PLEIADES 1A             
1 38012U 11076F   14300.49105755  .00000684  00000-0  15695-3 0  2094
2 38012  98.1848  13.5735 0001548  81.2371 278.9010 14.58580834152380
ZIYUAN 1-02C (ZY 1-02C) 
1 38038U 11079A   14300.44552060  .00000442  00000-0  16898-3 0  2240
2 38038  98.4551  13.4764 0001580  91.9224 268.2153 14.35404978149244
ZIYUAN 3 (ZY 3)         
1 38046U 12001A   14300.47758876  .00011402  00000-0  51166-3 0  2123
2 38046  97.3915  14.7687 0003789  50.6440  65.8564 15.21342781155432
RISAT 1                 
1 38248U 12017A   14300.44686880  .00008139  00000-0  51955-3 0  8255
2 38248  97.5636 305.7328 0004450 125.9067  12.2305 15.08926788137901
ARIRANG-3 (KOMPSAT-3)   
1 38338U 12025B   14300.43575993  .00000952  00000-0  20048-3 0  3489
2 38338  98.1016 237.2376 0013327  94.6574 265.6144 14.61655682130414
SPOT 6                  
1 38755U 12047A   14300.43867474  .00000664  00000-0  15252-3 0  4431
2 38755  98.1836   5.9949 0001135  87.1312 273.0033 14.58571677113456
GOKTURK 2               
1 39030U 12073A   14300.48024707  .00000726  00000-0  14486-3 0   888
2 39030  98.0887 194.4960 0014260 300.7911  59.1890 14.64841210 99218
LANDSAT 8               
1 39084U 13008A   14300.24430697  .00000794  00000-0  18619-3 0  6310
2 39084  98.2077   8.6532 0000733  77.9585 282.1695 14.57124134 90685
SARAL                   
1 39086U 13009A   14300.10857492 -.00001849  00000-0 -66981-3 0  6931
2 39086  98.5422 126.3390 0001102  62.0066 298.1085 14.32247349 87115
GAOFEN 1                
1 39150U 13018A   14300.43681962  .00001270  00000-0  18954-3 0  6625
2 39150  98.0207  18.9022 0016946 282.5940  77.3375 14.76473076 81033
VNREDSAT 1              
1 39160U 13021B   14300.49095117  .00001291  00000-0  26144-3 0  6866
2 39160  98.0866  14.9357 0001799  93.0790 267.0617 14.62917759 78703
ARIRANG-5 (KOMPSAT-5)   
1 39227U 13042A   14300.48834853  .00002628  00000-0  19380-3 0  3923
2 39227  97.5957 124.9147 0005384 333.1658 101.6221 15.04142537 64795
SKYSAT-1                
1 39418U 13066C   14300.40990638  .00003457  00000-0  30983-3 0   501
2 39418  97.7784  16.2661 0021576 273.5027  86.3726 14.96289433 50813
DUBAISAT-2              
1 39419U 13066D   14300.46898084  .00003060  00000-0  30624-3 0   579
2 39419  97.7769  14.2253 0013092 229.9825 130.0246 14.92094672 50704
GPM-CORE                
1 39574U 14009C   14300.21190756  .00027496  00000-0  38702-3 0  2850
2 39574  65.0200 318.6045 0011038 266.9902  92.9988 15.56507914 37566
SENTINEL-1A             
1 39634U 14016A   14300.41857317 -.00000066  00000-0 -43274-5 0  6267
2 39634  98.1796 305.8312 0001485  81.6292 278.5084 14.59198093 30146
KAZEOSAT 1              
1 39731U 14024A   14300.46900748  .00000354  00000-0  12155-3 0  5760
2 39731  98.5104  11.7618 0001250  88.6470 271.4868 14.41972588 26000
ALOS-2                  
1 39766U 14029A   14300.48225128 -.00000279  00000-0 -30463-4 0  4958
2 39766  97.9205  35.6799 0001671  87.8086 272.3343 14.79467997 23110
KAZEOSAT 2              
1 40010U 14033A   14300.43225669  .00001141  00000-0  15079-3 0  4347
2 40010  97.9708 194.6096 0018684 168.0732 192.0926 14.81853721 19195
HODOYOSHI-4             
1 40011U 14033B   14300.43784474  .00002095  00000-0  28523-3 0  4091
2 40011  97.9690 194.1005 0027904 154.5608 205.6978 14.79550096 19169
DEIMOS-2                
1 40013U 14033D   14300.42292545 -.00019318  00000-0 -23703-2 0  4277
2 40013  97.9535 195.2723 0000244 158.4049 201.7765 14.83138925 19235
HODOYOSHI-3             
1 40015U 14033F   14300.31655142  .00002020  00000-0  29009-3 0  4055
2 40015  97.9685 193.4535 0038240 150.0788 210.2623 14.77075819 19120
SPOT 7                  
1 40053U 14034A   14300.47327495 -.00000046  00000-0  00000+0 0  4167
2 40053  98.1896   6.1765 0001332  84.1963 275.9392 14.58536508 17392
SKYSAT-2                
1 40072U 14037D   14300.47967116  .00001438  00000-0  19774-3 0  3550
2 40072  98.3875 357.0824 0005167 265.0801  94.9829 14.79989245 16371
WORLDVIEW-3 (WV-3)      
1 40115U 14048A   14300.47022853  .00001554  00000-0  18824-3 0  2531
2 40115  97.9792  10.6001 0001903  97.5913 262.5526 14.85094782 11087
YAOGAN 21               
1 40143U 14053A   14300.47857789  .00013316  00000-0  53214-3 0  1868
2 40143  97.4113  13.5324 0011312  71.8268 343.8537 15.25187176  7527
YAOGAN 22               
1 40275U 14063A   14300.47339170 -.00000044  00000-0  00000+0 0   230
2 40275 100.3245  58.1199 0006828 110.6336 249.5503 13.15281491   948
